C/2017 D2 (Barros),e,31.2565,330.9926,334.4292,2614,0.0000074,0.99904847,0.0000,07/14.7663/2017,2000,g 11.0,4.0
# From MPC114598
C/2017 D3 (ATLAS),h,04/27.1598/2017,125.5734,186.6405,340.8426,1.001865,4.973899,2000,8.0,4.0
# From MPC110495
P/2017 D4 (PANSTARRS),e,10.5303,264.9371,212.3308,7.571752,0.0473053,0.62899825,56.2145,12/09.0/2019,2000,g 13.0,4.0
# From MPC104794
C/2017 D5 (PANSTARRS),e,131.0601,92.7370,287.8069,114.9994,0.0007992,0.98117951,0.0000,01/09.2349/2017,2000,g 16.0,4.0
# From MPC106346
C/2017 E1 (Borisov),h,04/10.4233/2017,14.5633,142.6273,152.5902,1.002935,0.900430,2000,14.0,4.0
# From MPC109144
C/2017 E2 (Tsuchinshan),e,79.0281,11.5679,89.3948,21.55206,0.0098508,0.89088804,12.8690,12/09.0/2019,2000,g 11.5,4.0
# From MPC115882
C/2017 E3 (PANSTARRS),h,06/08.2238/2017,70.6227,220.7263,334.5105,1.007257,5.936204,2000,6.5,4.0
# From MPC105239
C/2017 E4 (Lovejoy),h,04/23.5076/2017,88.1387,223.1367,87.0814,1.001503,0.491885,2000,17.0,4.0
# From MPC105239
C/2017 E5 (Lemmon),e,122.6589,206.2693,306.8662,384.0431,0.0001310,0.99534560,0.0000,06/10.5467/2016,2000,g 13.0,4.0
# From MPC111769
C/2017 F1 (Lemmon),h,11/30.6911/2017,146.4730,158.7760,64.7965,1.004417,4.498008,2000,10.5,4.0
# From MPC114598
C/2017 F2 (PANSTARRS),h,11/27.8395/2017,42.5082,38.6694,135.0453,1.004822,6.931171,2000,7.5,4.0
# From MPC104794
P/2017 G1 (PANSTARRS),e,4.7750,249.6287,224.5868,7.295020,0.0500224,0.65352309,65.9749,12/09.0/2019,2000,g 13.5,4.0
# From MPC108595
P/2017 G2 (PANSTARRS),e,47.9544,79.8007,105.6299,8.084196,0.0428794,0.64881812,38.9993,12/09.0/2019,2000,g 13.0,4.0
# From MPC109144
C/2017 G3 (PANSTARRS),e,159.0588,279.4802,73.1506,303.8593,0.0001861,0.99147075,0.0000,04/15.3454/2017,2000,g 14.0,4.0
# From MPC115882
C/2017 K1 (PANSTARRS),h,03/16.6999/2018,154.0078,225.6461,4.3459,1.001044,7.288292,2000,7.0,4.0
# From MPC118093
C/2017 K2 (PANSTARRS),h,12/20.1526/2022,87.5415,88.2703,236.1375,1.000391,1.801131,2000,1.5,4.0
# From MPC106346
P/2017 K3 (Gasparovic),e,4.2755,354.3058,253.4031,5.579022,0.0747940,0.58099545,68.9041,12/09.0/2019,2000,g 14.5,4.0
# From MPC114598
C/2017 K4 (ATLAS),e,16.6795,298.8737,15.1791,28.37455,0.0065209,0.90664229,4.5630,12/09.0/2019,2000,g 10.0,4.0
# From MPC118093
C/2017 K5 (PANSTARRS),h,03/23.4861/2020,82.2630,102.3737,171.7904,1.005686,7.678869,2000,5.0,4.0
# From MPC114599
C/2017 K6 (Jacques),e,57.2558,85.0553,303.7860,1064,0.0000284,0.99812009,0.0000,01/03.1642/2018,2000,g 11.0,4.0
# From MPC110083
C/2017 M3 (PANSTARRS),e,77.5223,7.0023,110.3643,168.4336,0.0004509,0.97234239,0.0000,04/28.2679/2017,2000,g 10.5,4.0
# From MPC118093
C/2017 M4 (ATLAS),h,01/17.8803/2019,105.6439,65.8636,167.5583,1.001263,3.251332,2000,6.0,4.0
# From MPC117069
C/2017 M5 (TOTAS),h,06/03.5977/2018,15.8831,216.2712,92.7086,1.004863,5.990847,2000,6.5,4.0
# From MPC114599
C/2017 O1 (ASASSN),e,39.8658,25.7884,20.8680,363.0889,0.0001425,0.99587669,0.0000,10/14.7083/2017,2000,g 11.0,4.0
# From MPC114599
P/2017 P1 (PANSTARRS),e,7.6999,221.4004,122.1555,7.884768,0.0445165,0.31007716,24.0180,12/09.0/2019,2000,g 10.0,4.0
# From MPC114599
C/2017 P2 (PANSTARRS),e,50.0652,165.5208,132.2928,1793,0.0000130,0.99862629,0.0000,12/06.6690/2017,2000,g 10.0,4.0
# From MPC114599
P/2017 R1 (PANSTARRS),e,2.5734,143.6272,178.4914,4.134834,0.1172241,0.19547357,114.1667,12/09.0/2019,2000,g 13.5,4.0
# From MPC108595
C/2017 S2 (PANSTARRS),e,12.6815,62.4216,305.9338,20.49173,0.0106252,0.82371306,8.8364,12/09.0/2019,2000,g 13.0,4.0
# From MPC114599
C/2017 S3 (PANSTARRS),h,08/15.9566/2018,99.0737,171.0879,255.8381,1.000048,0.208460,2000,11.0,4.0
# From MPC114599
P/2017 S5 (ATLAS),e,11.8503,252.3894,99.8354,3.169476,0.1746718,0.31363025,150.9016,12/09.0/2019,2000,g 14.0,4.0
# From MPC109591
C/2017 S6 (Catalina),h,02/26.7835/2018,152.8679,131.0516,134.7970,1.000834,1.541617,2000,12.5,4.0
# From MPC114599
C/2017 S7 (Lemmon),h,05/26.3748/2017,124.2339,262.7945,187.6528,1.001645,7.610683,2000,7.0,4.0
# From MPC114599
P/2017 S8 (PANSTARRS),e,29.8328,191.7637,254.6767,2.777723,0.2128975,0.39296653,144.6765,12/09.0/2019,2000,g 16.0,4.0
# From MPC107050
P/2017 S9 (PANSTARRS),e,14.1429,146.2152,237.7532,3.154474,0.1759194,0.30479651,152.8296,12/09.0/2019,2000,g 17.0,4.0
# From MPC114600
C/2017 T1 (Heinze),h,02/21.5596/2018,96.8372,102.3178,96.8980,1.000042,0.580860,2000,14.5,4.0
# From MPC118093
C/2017 T2 (PANSTARRS),e,57.2315,64.3788,92.9933,5195,0.0000026,0.99968910,0.0000,05/04.9492/2020,2000,g  5.0,4.0
# From MPC114600
C/2017 T3 (ATLAS),e,88.0302,230.0673,246.8386,1643,0.0000148,0.99949813,0.0000,07/19.1269/2018,2000,g 10.0,4.0
# From MPC115882
P/2017 TW13 (Lemmon),e,44.8449,322.2812,120.0741,7.152470,0.0515252,0.70942934,27.6232,12/09.0/2019,2000,g 15.0,2.0
# From MPC114600
C/2017 U2 (Fuls),e,95.3977,149.7141,147.7546,5641,0.0000023,0.99881186,0.0000,08/28.2818/2017,2000,g  9.0,4.0
# From MPC114600
P/2017 U3 (PANSTARRS),e,15.9107,165.1134,297.2407,4.933064,0.0899558,0.09906911,20.9826,12/09.0/2019,2000,g 11.0,4.0
# From MPC114600
C/2017 U4 (PANSTARRS),h,09/24.5336/2018,158.2241,245.9509,159.1017,1.003718,7.723360,2000,7.0,4.0
# From MPC114600
C/2017 U5 (PANSTARRS),e,18.9639,163.0897,262.0899,16.88520,0.0142051,0.74388202,10.2340,12/09.0/2019,2000,g 12.0,4.0
# From MPC118093
A/2017 U7,h,09/11.5831/2019,142.6353,276.2324,326.0576,1.001284,6.417351,2000,8.3,2.0
# From MPC114600
C/2017 W2 (Leonard),e,98.1977,312.8295,169.1302,13.69344,0.0194507,0.71108421,14.9232,12/09.0/2019,2000,g 11.0,4.0
# From MPC114601
P/2017 W3 (Gibbs),e,18.2152,210.5541,327.2478,7.833679,0.0449527,0.50882925,29.1325,12/09.0/2019,2000,g 10.5,4.0
# From MPC115883
C/2017 X1 (PANSTARRS),e,31.3083,251.1282,283.2408,31.48905,0.0055778,0.85183418,3.0209,12/09.0/2019,2000,g 10.0,4.0
# From MPC117069
C/2017 Y1 (PANSTARRS),e,55.2610,307.5220,134.3884,2142,0.0000099,0.99826459,0.0000,08/31.2126/2017,2000,g 11.5,4.0
# From MPC118093
C/2017 Y2 (PANSTARRS),h,11/04.4527/2020,128.4307,65.9707,147.8279,1.000179,4.632584,2000,15.0,4.0
# From MPC111770
P/2017 Y3 (Leonard),e,27.5746,153.8653,67.5602,9.853278,0.0318664,0.87043802,21.2186,12/09.0/2019,2000,g 16.5,4.0
# From MPC114601
C/2018 A1 (PANSTARRS),e,53.5831,336.6293,96.3406,25.14748,0.0078156,0.90383672,6.0939,12/09.0/2019,2000,g 12.5,4.0
# From MPC118093
C/2018 A3 (ATLAS),e,139.5577,194.2895,86.4213,508.7349,0.0000859,0.99355961,0.0000,01/12.8153/2019,2000,g  8.5,4.0
# From MPC114601
C/2018 A4 (PANSTARRS),e,3.1482,97.6349,356.1036,12.23334,0.0230349,0.80362856,13.1148,12/09.0/2019,2000,g 14.0,4.0
# From MPC109147
P/2018 A5 (PANSTARRS),e,23.5777,87.8312,359.6434,5.640313,0.0735782,0.52233913,59.3439,12/09.0/2019,2000,g 15.0,4.0
# From MPC118093
C/2018 A6 (Gibbs),e,76.9549,340.3862,264.5362,15.35324,0.0163834,0.80344022,2.4199,12/09.0/2019,2000,g  9.0,4.0
# From MPC118093
C/2018 B1 (Lemmon),h,03/30.0485/2018,162.4215,133.1861,68.3250,1.002176,5.115603,2000,9.0,4.0
# From MPC114601
P/2018 C1 (Lemmon-Read),e,5.1413,270.3841,235.0976,5.629550,0.0737893,0.53617470,47.9217,12/09.0/2019,2000,g 13.5,4.0
# From MPC114601
C/2018 C2 (Lemmon),h,06/02.0728/2018,34.4583,91.1389,134.1106,1.001147,1.956494,2000,13.0,4.0
# From MPC118094
C/2018 DO4 (Lemmon),e,160.4744,251.1325,175.9672,25.83423,0.0075060,0.90687024,0.8453,12/09.0/2019,2000,g 11.0,4.0
# From MPC114602
C/2018 E1 (ATLAS),e,72.4982,146.8459,299.4541,54.13175,0.0024747,0.95003094,1.4866,12/09.0/2019,2000,g 10.5,4.0
# From MPC114602
C/2018 E2 (Barros),e,97.7374,67.2011,277.4849,3224,0.0000054,0.99878359,0.0000,12/23.8714/2017,2000,g 10.5,4.0
# From MPC114602
C/2018 EN4 (NEOWISE),e,81.5755,136.1583,35.0126,18.34661,0.0125421,0.92105102,6.8899,12/09.0/2019,2000,g 15.0,4.0
# From MPC114602
C/2018 EF9 (Lemmon),e,84.6732,172.5781,72.6215,611.7201,0.0000651,0.99745489,0.0000,05/23.0874/2018,2000,g 18.0,2.0
# From MPC115883
C/2018 F1 (Grauer),e,46.0736,177.2778,71.6380,307.6959,0.0001826,0.99027189,0.0000,12/14.0576/2018,2000,g 11.5,4.0
# From MPC110084
C/2018 F3 (Johnson),p,08/15.2314/2017,105.5348,293.0113,2.483172,173.0311,2000,13.0,4.0
# From MPC117070
C/2018 F4 (PANSTARRS),h,12/04.0961/2019,78.0981,26.5073,263.2132,1.001465,3.439777,2000,11.9,2.0
# From MPC114602
P/2018 H2 (PANSTARRS),e,7.3884,68.4439,120.0590,4.398424,0.1068460,0.53984782,73.1834,12/09.0/2019,2000,g 16.6,2.0
# From MPC114602
C/2018 K1 (Weiland),e,164.1959,260.0117,324.9849,29.82661,0.0060506,0.93699865,3.6983,12/09.0/2019,2000,g 14.9,4.0
# From MPC118094
C/2018 KJ3 (Lemmon),e,136.7092,91.5942,217.6256,752.3703,0.0000478,0.99517705,0.0000,09/09.5028/2019,2000,g 12.2,2.0
# From MPC114602
P/2018 L1 (PANSTARRS),e,10.5948,268.6263,17.9222,3.648667,0.1414174,0.48305497,55.3538,12/09.0/2019,2000,g 15.0,4.0
# From MPC118094
C/2018 L2 (ATLAS),e,67.4195,243.0207,56.2471,249.9980,0.0002493,0.99315202,0.0000,12/02.6158/2018,2000,g 10.0,4.0
# From MPC114603
P/2018 L4 (PANSTARRS),e,26.6233,145.1786,140.4849,4.936937,0.0898499,0.66033124,44.4851,12/09.0/2019,2000,g 17.5,4.0
# From MPC114603
P/2018 L5 (Leonard),e,2.2088,219.1568,93.7007,3.626883,0.1426934,0.36481954,83.2295,12/09.0/2019,2000,g 14.5,4.0
# From MPC117070
C/2018 M1 (Catalina),e,37.2672,339.4411,14.1408,21.29183,0.0100319,0.93880209,5.1858,12/09.0/2019,2000,g 15.5,4.0
# From MPC112393
C/2018 N1 (NEOWISE),e,159.4446,292.4453,354.5673,330.7384,0.0001639,0.99604609,0.0000,08/01.9333/2018,2000,g 15.5,4.0
# From MPC118094
C/2018 N2 (ASASSN),h,11/10.9615/2019,77.5314,25.2589,24.3961,1.000170,3.124642,2000,6.0,4.0
# From MPC114603
C/2018 O1 (ATLAS),e,154.0428,87.6233,162.5081,27.76767,0.0067359,0.94387308,3.1286,12/09.0/2019,2000,g 17.0,4.0
# From MPC114603
P/2018 P3 (PANSTARRS),e,8.9084,59.2055,305.8718,3.007067,0.1890120,0.41605541,80.4285,12/09.0/2019,2000,g 14.5,4.0
# From MPC114603
P/2018 P4 (PANSTARRS),e,23.1072,353.0988,8.1402,6.664767,0.0572831,0.44991803,22.7144,12/09.0/2019,2000,g 12.0,4.0
# From MPC118094
C/2018 P5 (PANSTARRS),e,7.2559,216.2451,131.6560,12.76516,0.0216105,0.64152011,6.1711,12/09.0/2019,2000,g 11.0,4.0
# From MPC115884
